From:	Horizons Ephemeris System <horizons@ssd.jpl.nasa.gov>
Sent:	Friday, December 4, 2020 12:38 PM
Subject:	[Horizons] MAJOR BODY #C(usr={-90.,-10.,.600^G}@301)_T(301) (1/1)

 Automated mail xmit by MAIL_REQUEST, PID= 27775 Fri Dec  4 10:38:23 2020
++++++++++++++++++++++++++++++++ (part 1 of 1)  +++++++++++++++++++++++++++++++
*******************************************************************************
 Revised: July 31, 2013             Moon / (Earth)                          301
 
 GEOPHYSICAL DATA (updated 2018-Aug-15):
  Vol. mean radius, km  = 1737.53+-0.03    Mass, x10^22 kg       =    7.349
  Radius (gravity), km  = 1738.0           Surface emissivity    =    0.92
  Radius (IAU), km      = 1737.4           GM, km^3/s^2          = 4902.800066
  Density, g/cm^3       =    3.3437        GM 1-sigma, km^3/s^2  =  +-0.0001  
  V(1,0)                =   +0.21          Surface accel., m/s^2 =    1.62
  Earth/Moon mass ratio = 81.3005690769    Farside crust. thick. = ~80 - 90 km
  Mean crustal density  = 2.97+-.07 g/cm^3 Nearside crust. thick.= 58+-8 km 
  Heat flow, Apollo 15  = 3.1+-.6 mW/m^2   Mean angular diameter = 31'05.2"
  Heat flow, Apollo 17  = 2.2+-.5 mW/m^2   Sid. rot. rate, rad/s = 0.0000026617
  Geometric Albedo      = 0.12             Mean solar day        = 29.5306 d
  Obliquity to orbit    = 6.67 deg         Orbit period          = 27.321582 d
  Semi-major axis, a    = 384400 km        Eccentricity          = 0.05490
  Mean motion, rad/s    = 2.6616995x10^-6  Inclination           = 5.145 deg
  Apsidal period        = 3231.50 d        Nodal period          = 6798.38 d
                                 Perihelion  Aphelion    Mean
  Solar Constant (W/m^2)         1414+-7     1323+-7     1368+-7
  Maximum Planetary IR (W/m^2)   1314        1226        1268
  Minimum Planetary IR (W/m^2)      5.2         5.2         5.2
********************************************************************************
 
 
*******************************************************************************
Ephemeris / MAIL_REQUEST Fri Dec  4 10:38:22 2020 Pasadena, USA  / Horizons
*******************************************************************************
Target body name: Moon (301)                      {source: DE431mx}
Center body name: Moon (301)                      {source: DE431mx}
Center-site name: (user defined site below)
*******************************************************************************
Start time      : A.D. 2020-Jan-01 00:00:00.0000 TDB
Stop  time      : A.D. 2039-Jan-01 00:00:00.0000 TDB
Step-size       : 10000 steps
*******************************************************************************
Center geodetic : 270.000000,-10.000000,0.6000000 {E-lon(deg),Lat(deg),Alt(km)}
Center cylindric: 270.000000,1711.59587,-301.8005 {E-lon(deg),Dxy(km),Dz(km)}
Center pole/equ : IAU_MOON                        {East-longitude positive}
Center radii    : 1737.4 x 1737.4 x 1737.4 km     {Equator, meridian, pole}    
Output units    : KM-S
Output type     : GEOMETRIC cartesian states
Output format   : 3 (position, velocity, LT, range, range-rate)
Reference frame : Ecliptic of J2000.0
*******************************************************************************
JDTDB
   X     Y     Z
   VX    VY    VZ
   LT    RG    RR
*******************************************************************************
$$SOE
2464562.508000001 = A.D. 2035-Aug-23 00:11:31.2001 TDB 
   6.286041969250401E+02 -1.597699710962361E+03  2.699192419947408E+02
   4.233313195939388E-03  1.680599664745131E-03  8.897163671477213E-05
   5.797343974543886E-03  1.738000000000001E+03 -4.691139434459718E-19
2464563.202000001 = A.D. 2035-Aug-23 16:50:52.8001 TDB 
   8.733318511243968E+02 -1.477146215577995E+03  2.756347866566236E+02
   3.912169000724833E-03  2.331883264415837E-03  1.012598744358961E-04
   5.797343974543885E-03  1.738000000000000E+03  3.653100070238845E-19
2464563.896000001 = A.D. 2035-Aug-24 09:30:14.4001 TDB 
   1.095775305639918E+03 -1.319238589074595E+03  2.820106817945340E+02
   3.491609691534179E-03  2.923890243949866E-03  1.109502765006187E-04
   5.797343974543884E-03  1.738000000000000E+03  3.872685320362492E-19
2464564.590000001 = A.D. 2035-Aug-25 02:09:36.0001 TDB 
   1.290282009306004E+03 -1.127990573744618E+03  2.888833709380821E+02
   2.982326403277840E-03  3.441581149838566E-03  1.177949137635874E-04
   5.797343974543884E-03  1.738000000000000E+03  5.988688639735811E-20
2464565.284000001 = A.D. 2035-Aug-25 18:48:57.6001 TDB 
   1.451909509697846E+03 -9.082628581043762E+02  2.960766053524508E+02
   2.397262804181991E-03  3.871805659190583E-03  1.216192389179626E-04
   5.797343974543883E-03  1.738000000000000E+03  4.790950911788650E-20
2464565.978000001 = A.D. 2035-Aug-26 11:28:19.2001 TDB 
   1.576550921425399E+03 -6.656395443810979E+02  3.034059806741642E+02
   1.751286147883211E-03  4.203635957006073E-03  1.223263066807139E-04
   5.797343974543884E-03  1.738000000000000E+03  7.705446049793411E-19
2464566.672000001 = A.D. 2035-Aug-27 04:07:40.8001 TDB 
   1.661039168258229E+03 -4.062862796763156E+02  3.106836662246543E+02
   1.060809729404549E-03  4.428643679662627E-03  1.198989778395786E-04
   5.797343974543884E-03  1.738000000000000E+03  7.984918186314416E-20
2464567.366000001 = A.D. 2035-Aug-27 20:47:02.4001 TDB 
   1.703227366354852E+03 -1.367936502932025E+02  3.177232061706790E+02
   3.433763041215766E-04  4.541113485753689E-03  1.144001170463916E-04
   5.797343974543886E-03  1.738000000000001E+03  5.589442730420090E-20
2464568.060000001 = A.D. 2035-Aug-28 13:26:24.0001 TDB 
   1.702043319022729E+03  1.359901922254491E+02  3.243442735560149E+02
  -3.827870135142744E-04  4.538187907036538E-03  1.059708338633290E-04
   5.797343974543886E-03  1.738000000000001E+03  3.193967274525766E-20
2464568.754000001 = A.D. 2035-Aug-29 06:05:45.6001 TDB 
   1.657516746359754E+03  4.051334351293235E+02  3.303772620464205E+02
  -1.099231154413595E-03  4.419939848268177E-03  9.482684302477857E-05
   5.797343974543885E-03  1.738000000000000E+03  2.116003319373320E-19
2464569.448000001 = A.D. 2035-Aug-29 22:45:07.2001 TDB 
   1.570778559958711E+03  6.637966362419179E+02  3.356676053597560E+02
  -1.787753156252237E-03  4.189370906265353E-03  8.125303828948258E-05
   5.797343974543885E-03  1.738000000000000E+03  6.966841117559327E-19
2464570.142000001 = A.D. 2035-Aug-30 15:24:28.8001 TDB 
   1.444032197046330E+03  9.054064267452479E+02  3.400797205096949E+02
  -2.430858087820868E-03  3.852335525656697E-03  6.559639111020652E-05
   5.797343974543884E-03  1.738000000000000E+03  4.311855820609784E-19
2464570.836000001 = A.D. 2035-Aug-31 08:03:50.4001 TDB 
   1.280497732901400E+03  1.123822484855637E+03  3.435004782635352E+02
  -3.012203180440366E-03  3.417392860042784E-03  4.825730658332850E-05
   5.797343974543885E-03  1.738000000000000E+03  6.387934549051532E-20
2464571.530000001 = A.D. 2035-Sep-01 00:43:12.0001 TDB 
   1.084330178014646E+03  1.313493546968290E+03  3.458421129928939E+02
  -3.517012934467255E-03  2.895590020228614E-03  2.967959854800555E-05
   5.797343974543884E-03  1.738000000000000E+03 -1.068980922192842E-18
2464572.224000001 = A.D. 2035-Sep-01 17:22:33.6001 TDB 
   8.605140202181366E+02  1.469598496039025E+03  3.470444949107480E+02
  -3.932454672466247E-03  2.300182122546839E-03  1.033928407295521E-05
   5.797343974543884E-03  1.738000000000000E+03 -2.023677702844060E-19
2464572.918000001 = A.D. 2035-Sep-02 10:01:55.2001 TDB 
   6.147366755183343E+02  1.588168940440117E+03  3.470767010244006E+02
  -4.247964980830627E-03  1.646296156951104E-03 -9.267557263436762E-06
   5.797343974543884E-03  1.738000000000000E+03 -3.241377726257008E-19
2464573.612000001 = A.D. 2035-Sep-03 02:41:16.8001 TDB 
   3.532440491625757E+02  1.666190161557818E+03  3.459378372759525E+02
  -4.455518698541447E-03  9.505471347165841E-04 -2.863756635413273E-05
   5.797343974543886E-03  1.738000000000001E+03  2.684928740148222E-19
2464574.306000001 = A.D. 2035-Sep-03 19:20:38.4001 TDB 
   8.268186661508412E+01  1.701677853783068E+03  3.436570832636775E+02
  -4.549833548142528E-03  2.306162104612846E-04 -4.727319269168916E-05
   5.797343974543885E-03  1.738000000000000E+03 -5.988688639735812E-20
2464575.000000001 = A.D. 2035-Sep-04 12:00:00.0001 TDB 
  -1.900731996922383E+02  1.693728692974977E+03  3.402929522514855E+02
  -4.528505126195780E-03 -4.951985323587220E-04 -6.469571596475556E-05
   5.797343974543886E-03  1.738000000000001E+03 -1.716757410057599E-19
2464575.694000001 = A.D. 2035-Sep-05 04:39:21.6001 TDB 
  -4.580883175478044E+02  1.642543433546664E+03  3.359317821209556E+02
  -4.392068738224885E-03 -1.208447218291909E-03 -8.045781046375414E-05
   5.797343974543885E-03  1.738000000000001E+03  1.417322978070808E-19
2464576.388000001 = A.D. 2035-Sep-05 21:18:43.2001 TDB 
  -7.145507507086681E+02  1.549421933214846E+03  3.306854964077646E+02
  -4.143986431287784E-03 -1.890997392386539E-03 -9.415526331110606E-05
   5.797343974543886E-03  1.738000000000000E+03 -5.789065685077951E-19
2464577.082000001 = A.D. 2035-Sep-06 13:58:04.8001 TDB 
  -9.529410964280472E+02  1.416730220126047E+03  3.246886972472490E+02
  -3.790559496198173E-03 -2.525495336051323E-03 -1.054374830469316E-04
   5.797343974543885E-03  1.738000000000000E+03  2.155927910304892E-19
2464577.776000001 = A.D. 2035-Sep-07 06:37:26.4001 TDB 
  -1.167199091978965E+03  1.247840430877140E+03  3.180951724748981E+02
  -3.340768628692539E-03 -3.095807701822206E-03 -1.140164847048004E-04
   5.797343974543886E-03  1.738000000000000E+03  1.596983637262883E-20
2464578.470000001 = A.D. 2035-Sep-07 23:16:48.0001 TDB 
  -1.351877764864215E+03  1.047045141190328E+03  3.110739159355223E+02
  -2.806045801378331E-03 -3.587432179421852E-03 -1.196741075140135E-04
   5.797343974543884E-03  1.738000000000000E+03  3.353665638252055E-19
